NORAD_CAT_ID,OBJECT_NAME,OBJECT_TYPE,EPOCH,MEAN_MOTION,ECCENTRICITY,INCLINATION,RA_OF_ASC_NODE,ARG_OF_PERICENTER,MEAN_ANOMALY,BSTAR,MEAN_MOTION_DOT,MEAN_MOTION_DDOT,TLE_LINE0,TLE_LINE1,TLE_LINE2,SEMIMAJOR_AXIS,PERIOD,APOGEE,PERIGEE,DECAYED
55932.0,STARLINK-5848,PAYLOAD,2024-05-25 11:33:55,14.98329774,0.0003064,69.9986,111.238,271.1154,88.9654,4.9858e-06,-3.4e-07,0.0,0 STARLINK-5848,1 55932U 23037U   24146.48189439 -.00000034  00000-0  49858-5 0  9999,2 55932  69.9986 111.2380 0003064 271.1154  88.9654 14.98329774 66975,6950.194,96.107,574.188,569.929,0.0
55932.0,STARLINK-5848,PAYLOAD,2024-05-25 14:46:12,14.98327876,0.0003075,69.9986,110.9013,271.1898,88.8909,-4.0488e-05,-5.76e-06,0.0,0 STARLINK-5848,1 55932U 23037U   24146.61541671 -.00000576  00000-0 -40488-4 0  9995,2 55932  69.9986 110.9013 0003075 271.1898  88.8909 14.98327876 66659,6950.199,96.107,574.202,569.927,0.0
55932.0,STARLINK-5848,PAYLOAD,2024-05-26 11:35:56,14.98338851,0.0003064,69.9986,108.7131,270.1267,89.9541,1.4422e-05,7.9e-07,0.0,0 STARLINK-5848,1 55932U 23037U   24147.48328730  .00000079  00000-0  14422-4 0  9995,2 55932  69.9986 108.7131 0003064 270.1267  89.9541 14.98338851 67124,6950.166,96.106,574.16,569.901,0.0
55932.0,STARLINK-5848,PAYLOAD,2024-05-26 14:48:12,14.98339648,0.0003053,69.9987,108.3765,270.8568,89.2242,-1.8041e-06,-1.15e-06,0.0,0 STARLINK-5848,1 55932U 23037U   24147.61680655 -.00000115  00000-0 -18041-5 0  9992,2 55932  69.9987 108.3765 0003053 270.8568  89.2242 14.98339648 66803,6950.163,96.106,574.15,569.906,0.0
55932.0,STARLINK-5848,PAYLOAD,2024-05-26 21:12:45,14.98330825,0.0003052,69.9986,107.7032,269.8908,90.1902,-0.00011779,-1.498e-05,0.0,0 STARLINK-5848,1 55932U 23037U   24147.88385531 -.00001498  00000-0 -11779-3 0  9990,2 55932  69.9986 107.7032 0003052 269.8908  90.1902 14.98330825 67181,6950.19,96.107,574.177,569.934,0.0
55932.0,STARLINK-5848,PAYLOAD,2024-05-26 22:48:53,14.98320485,0.0003088,69.9987,107.5349,270.8124,89.2681,7.179e-05,7.63e-06,0.0,0 STARLINK-5848,1 55932U 23037U   24147.95061795  .00000763  00000-0  71790-4 0  9993,2 55932  69.9987 107.5349 0003088 270.8124  89.2681 14.98320485 66859,6950.222,96.108,574.234,569.941,0.0
55932.0,STARLINK-5848,PAYLOAD,2024-05-27 14:50:13,14.98327174,0.0003084,69.9987,105.8518,270.6087,89.4718,-1.662e-06,-1.13e-06,0.0,0 STARLINK-5848,1 55932U 23037U   24148.61821645 -.00000113  00000-0 -16620-5 0  9998,2 55932  69.9987 105.8518 0003084 270.6087  89.4718 14.98327174 66956,6950.202,96.107,574.21,569.923,0.0
55932.0,STARLINK-5848,PAYLOAD,2024-05-27 21:14:46,14.983264,0.0003077,69.9987,105.1785,270.0776,90.0031,4.379e-06,-4.1e-07,0.0,0 STARLINK-5848,1 55932U 23037U   24148.88525737 -.00000041  00000-0  43790-5 0  9997,2 55932  69.9987 105.1785 0003077 270.0776  90.0031 14.98326400 67336,6950.204,96.107,574.208,569.93,0.0
55932.0,STARLINK-5848,PAYLOAD,2024-05-27 22:50:54,14.9832608,0.0003076,69.9988,105.0102,269.7486,90.332,1.3277e-05,6.5e-07,0.0,0 STARLINK-5848,1 55932U 23037U   24148.95201743  .00000065  00000-0  13277-4 0  9994,2 55932  69.9988 105.0102 0003076 269.7486  90.3320 14.98326080 67003,6950.205,96.107,574.208,569.932,0.0
55932.0,STARLINK-5848,PAYLOAD,2024-05-28 06:51:34,14.98331852,0.0003081,69.9988,104.1685,269.7939,90.2867,3.18e-05,2.86e-06,0.0,0 STARLINK-5848,1 55932U 23037U   24149.28581330  .00000286  00000-0  31800-4 0  9991,2 55932  69.9988 104.1685 0003081 269.7939  90.2867 14.98331852 67051,6950.187,96.107,574.194,569.911,0.0
55932.0,STARLINK-5848,PAYLOAD,2024-05-28 21:16:46,14.98328509,0.0003079,69.9989,102.6536,270.3285,89.7521,3.4618e-05,3.2e-06,0.0,0 STARLINK-5848,1 55932U 23037U   24149.88665462  .00000320  00000-0  34618-4 0  9995,2 55932  69.9989 102.6536 0003079 270.3285  89.7521 14.98328509 67144,6950.198,96.107,574.202,569.923,0.0
55932.0,STARLINK-5848,PAYLOAD,2024-05-29 06:53:35,14.98332454,0.0003079,69.999,101.6437,270.4411,89.6395,5.4448e-05,5.57e-06,0.0,0 STARLINK-5848,1 55932U 23037U   24150.28721150  .00000557  00000-0  54448-4 0  9993,2 55932  69.9990 101.6437 0003079 270.4411  89.6395 14.98332454 67543,6950.185,96.107,574.19,569.91,0.0
55932.0,STARLINK-5848,PAYLOAD,2024-05-29 22:54:56,14.9832722,0.0003039,69.9992,99.9606,267.8989,92.1822,2.6449e-05,2.23e-06,0.0,0 STARLINK-5848,1 55932U 23037U   24150.95481507  .00000223  00000-0  26449-4 0  9996,2 55932  69.9992  99.9606 0003039 267.8989  92.1822 14.98327220 67301,6950.201,96.107,574.179,569.954,0.0
55932.0,STARLINK-5848,PAYLOAD,2024-05-30 06:55:36,14.98331967,0.0002976,69.9994,99.1192,266.5123,93.5696,2.691e-05,2.28e-06,0.0,0 STARLINK-5848,1 55932U 23037U   24151.28861185  .00000228  00000-0  26910-4 0  9995,2 55932  69.9994  99.1192 0002976 266.5123  93.5696 14.98331967 67699,6950.187,96.107,574.12,569.983,0.0
55932.0,STARLINK-5848,PAYLOAD,2024-05-30 21:20:48,14.98331951,0.0002828,69.9997,97.6047,263.9272,96.1564,4.2633e-06,-4.2e-07,0.0,0 STARLINK-5848,1 55932U 23037U   24151.88945174 -.00000042  00000-0  42633-5 0  9998,2 55932  69.9997  97.6047 0002828 263.9272  96.1564 14.98331951 67445,6950.187,96.107,574.017,570.086,0.0
55932.0,STARLINK-5848,PAYLOAD,2024-05-31 06:57:36,14.98332007,0.0002775,69.9998,96.5957,263.5303,96.5541,1.2997e-05,6.2e-07,0.0,0 STARLINK-5848,1 55932U 23037U   24152.29001071  .00000062  00000-0  12997-4 0  9993,2 55932  69.9998  96.5957 0002775 263.5303  96.5541 14.98332007 67842,6950.187,96.107,573.98,570.123,0.0
55932.0,STARLINK-5848,PAYLOAD,2024-05-31 21:22:51,14.98311684,0.0002765,70.0002,95.0779,278.2095,81.875,-9.371e-05,-1.21e-05,0.0,0 STARLINK-5848,1 55932U 23037U   24152.89087059 -.00001210  00000-0 -93710-4 0  9999,2 55932  70.0002  95.0779 0002765 278.2095  81.8750 14.98311684 67934,6950.25,96.108,574.036,570.193,0.0
55932.0,STARLINK-5848,PAYLOAD,2024-05-31 22:58:59,14.98300203,0.0002821,69.9999,94.9095,275.9626,84.1212,8.3705e-05,9.05e-06,0.0,0 STARLINK-5848,1 55932U 23037U   24152.95763247  .00000905  00000-0  83705-4 0  9997,2 55932  69.9999  94.9095 0002821 275.9626  84.1212 14.98300203 67600,6950.285,96.109,574.111,570.189,0.0
55932.0,STARLINK-5848,PAYLOAD,2024-06-01 13:24:11,14.9832012,0.0002802,69.9997,93.3965,271.4445,88.6393,-7.0448e-05,-9.33e-06,0.0,0 STARLINK-5848,1 55932U 23037U   24153.55847061 -.00000933  00000-0 -70448-4 0  9994,2 55932  69.9997  93.3965 0002802 271.4445  88.6393 14.98320120 68033,6950.223,96.108,574.036,570.141,0.0
55932.0,STARLINK-5848,PAYLOAD,2024-06-01 21:24:51,14.9832635,0.0002853,69.9996,92.5548,271.8181,88.2652,8.7319e-06,1.1e-07,0.0,0 STARLINK-5848,1 55932U 23037U   24153.89226603  .00000011  00000-0  87319-5 0  9995,2 55932  69.9996  92.5548 0002853 271.8181  88.2652 14.98326350 68087,6950.204,96.107,574.052,570.086,0.0
55932.0,STARLINK-5848,PAYLOAD,2024-06-02 13:26:11,14.98333655,0.0002809,69.9998,90.8715,266.8742,93.2096,0.00012862,1.442e-05,0.0,0 STARLINK-5848,1 55932U 23037U   24154.55985893  .00001442  00000-0  12862-3 0  9990,2 55932  69.9998  90.8715 0002809 266.8742  93.2096 14.98333655 67841,6950.182,96.107,573.999,570.094,0.0
55932.0,STARLINK-5848,PAYLOAD,2024-06-03 05:27:31,14.98341433,0.00029,69.9997,89.1875,271.6561,88.4265,0.00033593,3.919e-05,0.0,0 STARLINK-5848,1 55932U 23037U   24155.22744709  .00003919  00000-0  33593-3 0  9999,2 55932  69.9997  89.1875 0002900 271.6561  88.4265 14.98341433 68289,6950.158,96.106,574.038,570.007,0.0
55932.0,STARLINK-5848,PAYLOAD,2024-06-03 13:28:12,14.98334275,0.0002529,70.0009,88.3449,279.8012,80.2861,0.00019889,2.281e-05,0.0,0 STARLINK-5848,1 55932U 23037U   24155.56125482  .00002281  00000-0  19889-3 0  9990,2 55932  70.0009  88.3449 0002529 279.8012  80.2861 14.98334275 67997,6950.18,96.107,573.802,570.287,0.0
55932.0,STARLINK-5848,PAYLOAD,2024-06-04 05:29:32,14.9833728,0.0002649,70.0004,86.6629,271.2361,88.8494,6.3513e-05,6.65e-06,0.0,0 STARLINK-5848,1 55932U 23037U   24156.22885160  .00000665  00000-0  63513-4 0  9998,2 55932  70.0004  86.6629 0002649 271.2361  88.8494 14.98337280 68096,6950.17,96.107,573.876,570.194,0.0
55932.0,STARLINK-5848,PAYLOAD,2024-06-04 23:07:01,14.98342158,0.0002593,70.0012,84.8113,275.6833,84.403,-0.00013913,-1.753e-05,0.0,0 STARLINK-5848,1 55932U 23037U   24156.96320919 -.00001753  00000-0 -13913-3 0  9994,2 55932  70.0012  84.8113 0002593 275.6833  84.4030 14.98342158 68204,6950.155,96.106,573.822,570.218,0.0
55932.0,STARLINK-5848,PAYLOAD,2024-06-05 05:31:33,14.98344401,0.0002639,70.0008,84.1391,268.4008,91.6849,-0.00013604,-1.716e-05,0.0,0 STARLINK-5848,1 55932U 23037U   24157.23024515 -.00001716  00000-0 -13604-3 0  9994,2 55932  70.0008  84.1391 0002639 268.4008  91.6849 14.98344401 68587,6950.148,96.106,573.848,570.179,0.0
55932.0,STARLINK-5848,PAYLOAD,2024-06-05 11:56:05,14.98341291,0.0002729,70.0005,83.4643,273.6774,86.4073,-0.00018657,-2.319e-05,0.0,0 STARLINK-5848,1 55932U 23037U   24157.49728631 -.00002319  00000-0 -18657-3 0  9995,2 55932  70.0005  83.4643 0002729 273.6774  86.4073 14.98341291 68286,6950.158,96.106,573.92,570.126,0.0
55932.0,STARLINK-5848,PAYLOAD,2024-06-06 05:33:35,14.98333908,0.0002211,70.0021,81.6144,276.8253,83.2655,-0.00024605,-3.028e-05,0.0,0 STARLINK-5848,1 55932U 23037U   24158.23165537 -.00003028  00000-0 -24605-3 0  9996,2 55932  70.0021  81.6144 0002211 276.8253  83.2655 14.98333908 68730,6950.181,96.107,573.582,570.509,0.0
55932.0,STARLINK-5848,PAYLOAD,2024-06-06 11:58:06,14.98331483,0.0002521,70.0013,80.9415,269.2921,90.7949,-0.00011187,-1.427e-05,0.0,0 STARLINK-5848,1 55932U 23037U   24158.49869169 -.00001427  00000-0 -11187-3 0  9998,2 55932  70.0013  80.9415 0002521 269.2921  90.7949 14.98331483 68438,6950.188,96.107,573.805,570.301,0.0
55932.0,STARLINK-5848,PAYLOAD,2024-06-06 23:11:03,14.98333639,0.0002969,70.0006,79.76,277.4343,82.6479,-5.2245e-05,-7.16e-06,0.0,0 STARLINK-5848,1 55932U 23037U   24158.96600858 -.00000716  00000-0 -52245-4 0  9999,2 55932  70.0006  79.7600 0002969 277.4343  82.6479 14.98333639 68845,6950.182,96.107,574.11,569.983,0.0
